ONEWEB-0446             
1 51640U 22012U   25141.15130905  .00000639  00000+0  17929-2 0  9997
2 51640  87.8805 114.4551 0002250  89.6448 270.4937 13.10370644159289
ONEWEB-0448             
1 51641U 22012V   25140.62177744  .00000296  00000+0  81082-3 0  9992
2 51641  87.8801 114.5603 0002039  83.6969 276.4391 13.10369187157886
ONEWEB-0449             
1 51642U 22012W   25140.62675346  .00000044  00000+0  90512-4 0  9994
2 51642  87.8795 114.5356 0002227  73.0212 287.1159 13.10369137157894
ONEWEB-0451             
1 51643U 22012X   25141.15040033  .00000088  00000+0  19393-3 0  9998
2 51643  87.9055  83.8930 0002153  77.0383 283.0989 13.17648370163330
ONEWEB-0452             
1 51644U 22012Y   25140.76902095 -.00000014  00000+0 -68390-4 0  9993
2 51644  87.9060  84.0296 0002063  71.7486 288.3870 13.17647060161992
ONEWEB-0456             
1 51646U 22012AA  25141.17121271 -.00000325  00000+0 -96602-3 0  9991
2 51646  87.8795 114.3872 0001900  90.3469 269.7876 13.10370853159297
ONEWEB-0457             
1 51647U 22012AB  25140.68984500  .00000561  00000+0  15720-2 0  9990
2 51647  87.8803 114.5354 0002417  80.7939 279.3462 13.10370343157946
ONEWEB-0458             
1 51648U 22012AC  25141.16954595 -.00000287  00000+0 -85918-3 0  9990
2 51648  87.8787 114.4252 0001950  82.0942 278.0407 13.10369295159260
